[{"OBJECT_NAME":"STARLINK-1363","OBJECT_ID":"2020-025AP","EPOCH":"2026-03-09T04:33:57.485088","MEAN_MOTION":15.76582535,"ECCENTRICITY":0.00083079,"INCLINATION":53.043,"RA_OF_ASC_NODE":40.2129,"ARG_OF_PERICENTER":56.0535,"MEAN_ANOMALY":304.1273,"EPHEMERIS_TYPE":0,"CLASSIFICATION_TYPE":"U","NORAD_CAT_ID":45568,"ELEMENT_SET_NO":999,"REV_AT_EPOCH":32597,"BSTAR":0.00073874012,"MEAN_MOTION_DOT":0.00121445,"MEAN_MOTION_DDOT":0},{"OBJECT_NAME":"STARLINK-36695","OBJECT_ID":"2026-025K","EPOCH":"2026-03-09T20:14:56.065344","MEAN_MOTION":15.75427581,"ECCENTRICITY":0.00026288,"INCLINATION":97.2844,"RA_OF_ASC_NODE":180.4196,"ARG_OF_PERICENTER":24.5107,"MEAN_ANOMALY":335.6283,"EPHEMERIS_TYPE":0,"CLASSIFICATION_TYPE":"U","NORAD_CAT_ID":67702,"ELEMENT_SET_NO":999,"REV_AT_EPOCH":596,"BSTAR":0.0032433686,"MEAN_MOTION_DOT":0.0051955,"MEAN_MOTION_DDOT":0}]
