STARLINK-1363           
1 45568U 20025AP  26068.19024867  .00121445  00000+0  73874-3 0  9994
2 45568  53.0430  40.2129 0008307  56.0535 304.1273 15.76582535325978
STARLINK-36695          
1 67702U 26025K   26068.84370444  .00519550  00000+0  32434-2 0  9995
2 67702  97.2844 180.4196 0002629  24.5107 335.6283 15.75427581  5960
